[{"OBJECT_NAME":"OBJECT D","OBJECT_ID":"2024-173D","EPOCH":"2026-03-09T23:30:29.956896","MEAN_MOTION":15.27005733,"ECCENTRICITY":0.00090093,"INCLINATION":97.3606,"RA_OF_ASC_NODE":149.3901,"ARG_OF_PERICENTER":241.6081,"MEAN_ANOMALY":118.425,"EPHEMERIS_TYPE":0,"CLASSIFICATION_TYPE":"U","NORAD_CAT_ID":61230,"ELEMENT_SET_NO":999,"REV_AT_EPOCH":8130,"BSTAR":0.00072064626,"MEAN_MOTION_DOT":0.00019078,"MEAN_MOTION_DDOT":0},{"OBJECT_NAME":"STARLINK-34056","OBJECT_ID":"2025-093F","EPOCH":"2026-03-09T09:19:15.252672","MEAN_MOTION":15.27569784,"ECCENTRICITY":4.948e-5,"INCLINATION":42.9951,"RA_OF_ASC_NODE":79.8164,"ARG_OF_PERICENTER":239.5372,"MEAN_ANOMALY":120.5431,"EPHEMERIS_TYPE":0,"CLASSIFICATION_TYPE":"U","NORAD_CAT_ID":63841,"ELEMENT_SET_NO":999,"REV_AT_EPOCH":4770,"BSTAR":0.0011262482,"MEAN_MOTION_DOT":0.0003085,"MEAN_MOTION_DDOT":0}]
